{"type": "FeatureCollection", "features": [ {"type": "Feature", "properties": {"norad_id": 36539, "name": "COSMOS 2251 DEB", "group": "cosmos-2251-debris", "lat": -72.86795777670433, "lon": -55.52892068142662, "alt_km": 693.4255164703518, "timestamp": "2025-12-12T05:47:29.168777+00:00", "meta": {"OBJECT_NAME": "COSMOS 2251 DEB", "OBJECT_ID": "1993-036BCZ", "EPOCH": "2025-12-11T15:25:29.467488", "MEAN_MOTION": 14.59291195, "ECCENTRICITY": 0.00272696, "INCLINATION": 74.0237, "RA_OF_ASC_NODE": 57.2724, "ARG_OF_PERICENTER": 202.5969, "MEAN_ANOMALY": 157.3998, "EPHEMERIS_TYPE": 0, "CLASSIFICATION_TYPE": "U", "NORAD_CAT_ID": 36539, "ELEMENT_SET_NO": 999, "REV_AT_EPOCH": 83931, "BSTAR": 0.0011949516, "MEAN_MOTION_DOT": 5.65e-05, "MEAN_MOTION_DDOT": 0}, "tle": {"line1": "1 36539U 93036BCZ 25345.64270217  .00005650  00000+0  11950-2 0  9998", "line2": "2 36539  74.0237  57.2724 0027269 202.5969 157.3998 14.59291195839319"}}, "geometry": {"type": "Point", "coordinates": [-55.52892068142662, -72.86795777670433]}}, {"type": "Feature", "properties": {"norad_id": 36540, "name": "COSMOS 2251 DEB", "group": "cosmos-2251-debris", "lat": -44.5164485481786, "lon": 17.82243834486279, "alt_km": 694.7825079160002, "timestamp": "2025-12-12T05:47:29.168787+00:00", "meta": {"OBJECT_NAME": "COSMOS 2251 DEB", "OBJECT_ID": "1993-036BDA", "EPOCH": "2025-12-10T19:49:44.721120", "MEAN_MOTION": 14.58450525, "ECCENTRICITY": 0.00150636, "INCLINATION": 74.0281, "RA_OF_ASC_NODE": 184.1599, "ARG_OF_PERICENTER": 254.4622, "MEAN_ANOMALY": 105.488, "EPHEMERIS_TYPE": 0, "CLASSIFICATION_TYPE": "U", "NORAD_CAT_ID": 36540, "ELEMENT_SET_NO": 999, "REV_AT_EPOCH": 85982, "BSTAR": 0.0015654677, "MEAN_MOTION_DOT": 7.253e-05, "MEAN_MOTION_DDOT": 0}, "tle": {"line1": "1 36540U 93036BDA 25344.82621205  .00007253  00000+0  15655-2 0  9993", "line2": "2 36540  74.0281 184.1599 0015063 254.4622 105.4880 14.58450525859826"}}, "geometry": {"type": "Point", "coordinates": [17.82243834486279, -44.5164485481786]}}, {"type": "Feature", "properties": {"norad_id": 36550, "name": "COSMOS 2251 DEB", "group": "cosmos-2251-debris", "lat": 54.44497282430147, "lon": -9.95294627917131, "alt_km": 825.3337659376266, "timestamp": "2025-12-12T05:47:29.168797+00:00", "meta": {"OBJECT_NAME": "COSMOS 2251 DEB", "OBJECT_ID": "1993-036BDL", "EPOCH": "2025-12-11T22:29:04.773984", "MEAN_MOTION": 14.2719583, "ECCENTRICITY": 0.00783952, "INCLINATION": 74.044, "RA_OF_ASC_NODE": 194.1933, "ARG_OF_PERICENTER": 245.0302, "MEAN_ANOMALY": 114.2689, "EPHEMERIS_TYPE": 0, "CLASSIFICATION_TYPE": "U", "NORAD_CAT_ID": 36550, "ELEMENT_SET_NO": 999, "REV_AT_EPOCH": 84584, "BSTAR": 0.00089503429, "MEAN_MOTION_DOT": 2.233e-05, "MEAN_MOTION_DDOT": 0}, "tle": {"line1": "1 36550U 93036BDL 25345.93686081  .00002233  00000+0  89503-3 0  9997", "line2": "2 36550  74.0440 194.1933 0078395 245.0302 114.2689 14.27195830845848"}}, "geometry": {"type": "Point", "coordinates": [-9.95294627917131, 54.44497282430147]}}, {"type": "Feature", "properties": {"norad_id": 36551, "name": "COSMOS 2251 DEB", "group": "cosmos-2251-debris", "lat": 42.559701418049286, "lon": 31.12436581114792, "alt_km": 548.8806182865792, "timestamp": "2025-12-12T05:47:29.168806+00:00", "meta": {"OBJECT_NAME": "COSMOS 2251 DEB", "OBJECT_ID": "1993-036BDM", "EPOCH": "2025-12-11T08:49:13.161216", "MEAN_MOTION": 15.02499936, "ECCENTRICITY": 0.00508907, "INCLINATION": 73.8866, "RA_OF_ASC_NODE": 17.5288, "ARG_OF_PERICENTER": 326.8446, "MEAN_ANOMALY": 32.9554, "EPHEMERIS_TYPE": 0, "CLASSIFICATION_TYPE": "U", "NORAD_CAT_ID": 36551, "ELEMENT_SET_NO": 999, "REV_AT_EPOCH": 66911, "BSTAR": 0.0023963096, "MEAN_MOTION_DOT": 0.00032841, "MEAN_MOTION_DDOT": 0}, "tle": {"line1": "1 36551U 93036BDM 25345.36751344  .00032841  00000+0  23963-2 0  9995", "line2": "2 36551  73.8866  17.5288 0050890 326.8446  32.9554 15.02499936669115"}}, "geometry": {"type": "Point", "coordinates": [31.12436581114792, 42.559701418049286]}}, {"type": "Feature", "properties": {"norad_id": 36557, "name": "COSMOS 2251 DEB", "group": "cosmos-2251-debris", "lat": 64.93854782288342, "lon": 165.1466492424178, "alt_km": 641.2801066195116, "timestamp": "2025-12-12T05:47:29.168816+00:00", "meta": {"OBJECT_NAME": "COSMOS 2251 DEB", "OBJECT_ID": "1993-036BDT", "EPOCH": "2025-12-11T16:28:44.136480", "MEAN_MOTION": 14.78160391, "ECCENTRICITY": 0.00210346, "INCLINATION": 73.9786, "RA_OF_ASC_NODE": 128.3248, "ARG_OF_PERICENTER": 280.1534, "MEAN_ANOMALY": 79.7268, "EPHEMERIS_TYPE": 0, "CLASSIFICATION_TYPE": "U", "NORAD_CAT_ID": 36557, "ELEMENT_SET_NO": 999, "REV_AT_EPOCH": 33881, "BSTAR": 0.0052972788, "MEAN_MOTION_DOT": 0.00038702, "MEAN_MOTION_DDOT": 0}, "tle": {"line1": "1 36557U 93036BDT 25345.68662195  .00038702  00000+0  52973-2 0  9996", "line2": "2 36557  73.9786 128.3248 0021034 280.1534  79.7268 14.78160391338811"}}, "geometry": {"type": "Point", "coordinates": [165.1466492424178, 64.93854782288342]}}, {"type": "Feature", "properties": {"norad_id": 36558, "name": "COSMOS 2251 DEB", "group": "cosmos-2251-debris", "lat": 47.584303632106945, "lon": 173.73992925695828, "alt_km": 712.5854772802777, "timestamp": "2025-12-12T05:47:29.168827+00:00", "meta": {"OBJECT_NAME": "COSMOS 2251 DEB", "OBJECT_ID": "1993-036BDU", "EPOCH": "2025-12-09T18:10:09.606432", "MEAN_MOTION": 14.55323693, "ECCENTRICITY": 0.00129627, "INCLINATION": 74.0418, "RA_OF_ASC_NODE": 160.1895, "ARG_OF_PERICENTER": 248.6111, "MEAN_ANOMALY": 111.367, "EPHEMERIS_TYPE": 0, "CLASSIFICATION_TYPE": "U", "NORAD_CAT_ID": 36558, "ELEMENT_SET_NO": 999, "REV_AT_EPOCH": 85225, "BSTAR": 0.0013992246, "MEAN_MOTION_DOT": 6.051e-05, "MEAN_MOTION_DDOT": 0}, "tle": {"line1": "1 36558U 93036BDU 25343.75705563  .00006051  00000+0  13992-2 0  9990", "line2": "2 36558  74.0418 160.1895 0012962 248.6111 111.3670 14.55323693852258"}}, "geometry": {"type": "Point", "coordinates": [173.73992925695828, 47.584303632106945]}}, {"type": "Feature", "properties": {"norad_id": 36559, "name": "COSMOS 2251 DEB", "group": "cosmos-2251-debris", "lat": -10.331425636274473, "lon": 7.691523827588709, "alt_km": 800.9325679514404, "timestamp": "2025-12-12T05:47:29.168836+00:00", "meta": {"OBJECT_NAME": "COSMOS 2251 DEB", "OBJECT_ID": "1993-036BDV", "EPOCH": "2025-12-09T02:07:20.280288", "MEAN_MOTION": 13.95143806, "ECCENTRICITY": 0.02599602, "INCLINATION": 74.1299, "RA_OF_ASC_NODE": 16.0496, "ARG_OF_PERICENTER": 49.9692, "MEAN_ANOMALY": 312.3935, "EPHEMERIS_TYPE": 0, "CLASSIFICATION_TYPE": "U", "NORAD_CAT_ID": 36559, "ELEMENT_SET_NO": 999, "REV_AT_EPOCH": 81043, "BSTAR": 0.0028021544, "MEAN_MOTION_DOT": 4.995e-05, "MEAN_MOTION_DDOT": 0}, "tle": {"line1": "1 36559U 93036BDV 25343.08842917  .00004995  00000+0  28022-2 0  9997", "line2": "2 36559  74.1299  16.0496 0259960  49.9692 312.3935 13.95143806810430"}}, "geometry": {"type": "Point", "coordinates": [7.691523827588709, -10.331425636274473]}}, {"type": "Feature", "properties": {"norad_id": 36614, "name": "COSMOS 2251 DEB", "group": "cosmos-2251-debris", "lat": 54.78238359283579, "lon": -160.51391170136588, "alt_km": 698.170673432217, "timestamp": "2025-12-12T05:47:29.168846+00:00", "meta": {"OBJECT_NAME": "COSMOS 2251 DEB", "OBJECT_ID": "1993-036BEC", "EPOCH": "2025-12-11T06:30:21.400992", "MEAN_MOTION": 14.60233542, "ECCENTRICITY": 0.00161993, "INCLINATION": 74.0218, "RA_OF_ASC_NODE": 177.391, "ARG_OF_PERICENTER": 247.2616, "MEAN_ANOMALY": 112.6838, "EPHEMERIS_TYPE": 0, "CLASSIFICATION_TYPE": "U", "NORAD_CAT_ID": 36614, "ELEMENT_SET_NO": 999, "REV_AT_EPOCH": 65591, "BSTAR": 0.0024222077, "MEAN_MOTION_DOT": 0.00011696, "MEAN_MOTION_DDOT": 0}, "tle": {"line1": "1 36614U 93036BEC 25345.27108103  .00011696  00000+0  24222-2 0  9998", "line2": "2 36614  74.0218 177.3910 0016199 247.2616 112.6838 14.60233542655911"}}, "geometry": {"type": "Point", "coordinates": [-160.51391170136588, 54.78238359283579]}}, {"type": "Feature", "properties": {"norad_id": 36622, "name": "COSMOS 2251 DEB", "group": "cosmos-2251-debris", "lat": 73.43089993761389, "lon": -108.03253652333157, "alt_km": 681.821876651612, "timestamp": "2025-12-12T05:47:29.168856+00:00", "meta": {"OBJECT_NAME": "COSMOS 2251 DEB", "OBJECT_ID": "1993-036BEL", "EPOCH": "2025-12-11T03:20:19.326912", "MEAN_MOTION": 14.76171413, "ECCENTRICITY": 0.00687351, "INCLINATION": 74.0133, "RA_OF_ASC_NODE": 148.6143, "ARG_OF_PERICENTER": 284.3328, "MEAN_ANOMALY": 75.0222, "EPHEMERIS_TYPE": 0, "CLASSIFICATION_TYPE": "U", "NORAD_CAT_ID": 36622, "ELEMENT_SET_NO": 999, "REV_AT_EPOCH": 66726, "BSTAR": 0.0010239772, "MEAN_MOTION_DOT": 7.33e-05, "MEAN_MOTION_DDOT": 0}, "tle": {"line1": "1 36622U 93036BEL 25345.13911258  .00007330  00000+0  10240-2 0  9990", "line2": "2 36622  74.0133 148.6143 0068735 284.3328  75.0222 14.76171413667265"}}, "geometry": {"type": "Point", "coordinates": [-108.03253652333157, 73.43089993761389]}}, {"type": "Feature", "properties": {"norad_id": 36632, "name": "COSMOS 2251 DEB", "group": "cosmos-2251-debris", "lat": -42.818030979607755, "lon": -82.11740685020038, "alt_km": 752.6876288671638, "timestamp": "2025-12-12T05:47:29.168866+00:00", "meta": {"OBJECT_NAME": "COSMOS 2251 DEB", "OBJECT_ID": "1993-036BEW", "EPOCH": "2025-12-11T03:22:48.137088", "MEAN_MOTION": 14.43159024, "ECCENTRICITY": 0.00319439, "INCLINATION": 74.0027, "RA_OF_ASC_NODE": 295.3456, "ARG_OF_PERICENTER": 43.4523, "MEAN_ANOMALY": 316.9142, "EPHEMERIS_TYPE": 0, "CLASSIFICATION_TYPE": "U", "NORAD_CAT_ID": 36632, "ELEMENT_SET_NO": 999, "REV_AT_EPOCH": 65192, "BSTAR": 0.001324385, "MEAN_MOTION_DOT": 4.453e-05, "MEAN_MOTION_DDOT": 0}, "tle": {"line1": "1 36632U 93036BEW 25345.14083492  .00004453  00000+0  13244-2 0  9992", "line2": "2 36632  74.0027 295.3456 0031943  43.4523 316.9142 14.43159024651929"}}, "geometry": {"type": "Point", "coordinates": [-82.11740685020038, -42.818030979607755]}}]}